{"type": "FeatureCollection", "features": [ {"type": "Feature", "properties": {"norad_id": 33779, "name": "COSMOS 2251 DEB", "group": "cosmos-2251-debris", "lat": 44.42363366822787, "lon": -154.67624932952438, "alt_km": 669.0503806410643, "timestamp": "2025-12-03T06:58:43.634433+00:00", "meta": {"OBJECT_NAME": "COSMOS 2251 DEB", "OBJECT_ID": "1993-036U", "EPOCH": "2025-12-02T16:23:29.966208", "MEAN_MOTION": 14.70142569, "ECCENTRICITY": 0.0017895, "INCLINATION": 74.0444, "RA_OF_ASC_NODE": 190.2173, "ARG_OF_PERICENTER": 225.6557, "MEAN_ANOMALY": 205.6997, "EPHEMERIS_TYPE": 0, "CLASSIFICATION_TYPE": "U", "NORAD_CAT_ID": 33779, "ELEMENT_SET_NO": 999, "REV_AT_EPOCH": 88380, "BSTAR": 0.001463, "MEAN_MOTION_DOT": 8.804e-05, "MEAN_MOTION_DDOT": 0}, "tle": {"line1": "1 33779U 93036U   25336.68298572  .00008804  00000+0  14630-2 0  9991", "line2": "2 33779  74.0444 190.2173 0017895 225.6557 205.6997 14.70142569883803"}}, "geometry": {"type": "Point", "coordinates": [-154.67624932952438, 44.42363366822787]}}, {"type": "Feature", "properties": {"norad_id": 33782, "name": "COSMOS 2251 DEB", "group": "cosmos-2251-debris", "lat": 69.53248373310947, "lon": 64.92694782172953, "alt_km": 752.9390788363371, "timestamp": "2025-12-03T06:58:43.634444+00:00", "meta": {"OBJECT_NAME": "COSMOS 2251 DEB", "OBJECT_ID": "1993-036X", "EPOCH": "2025-12-02T03:54:24.847776", "MEAN_MOTION": 14.40396203, "ECCENTRICITY": 0.00202875, "INCLINATION": 74.0326, "RA_OF_ASC_NODE": 297.1073, "ARG_OF_PERICENTER": 3.7981, "MEAN_ANOMALY": 12.1312, "EPHEMERIS_TYPE": 0, "CLASSIFICATION_TYPE": "U", "NORAD_CAT_ID": 33782, "ELEMENT_SET_NO": 999, "REV_AT_EPOCH": 87974, "BSTAR": 0.00052461044, "MEAN_MOTION_DOT": 1.643e-05, "MEAN_MOTION_DDOT": 0}, "tle": {"line1": "1 33782U 93036X   25336.16278759  .00001643  00000+0  52461-3 0  9992", "line2": "2 33782  74.0326 297.1073 0020287   3.7981  12.1312 14.40396203879740"}}, "geometry": {"type": "Point", "coordinates": [64.92694782172953, 69.53248373310947]}}, {"type": "Feature", "properties": {"norad_id": 33785, "name": "COSMOS 2251 DEB", "group": "cosmos-2251-debris", "lat": 18.285218331903422, "lon": 83.93503432871383, "alt_km": 645.7283581879037, "timestamp": "2025-12-03T06:58:43.634454+00:00", "meta": {"OBJECT_NAME": "COSMOS 2251 DEB", "OBJECT_ID": "1993-036AA", "EPOCH": "2025-12-02T18:23:25.091232", "MEAN_MOTION": 14.70093872, "ECCENTRICITY": 0.0021279, "INCLINATION": 73.8674, "RA_OF_ASC_NODE": 79.4739, "ARG_OF_PERICENTER": 21.6316, "MEAN_ANOMALY": 102.7292, "EPHEMERIS_TYPE": 0, "CLASSIFICATION_TYPE": "U", "NORAD_CAT_ID": 33785, "ELEMENT_SET_NO": 999, "REV_AT_EPOCH": 88360, "BSTAR": 0.0025697, "MEAN_MOTION_DOT": 0.00015501, "MEAN_MOTION_DDOT": 0}, "tle": {"line1": "1 33785U 93036AA  25336.76626263  .00015501  00000+0  25697-2 0  9996", "line2": "2 33785  73.8674  79.4739 0021279  21.6316 102.7292 14.70093872883601"}}, "geometry": {"type": "Point", "coordinates": [83.93503432871383, 18.285218331903422]}}, {"type": "Feature", "properties": {"norad_id": 33789, "name": "COSMOS 2251 DEB", "group": "cosmos-2251-debris", "lat": 73.65769051898161, "lon": -179.5439169294192, "alt_km": 1047.251816870129, "timestamp": "2025-12-03T06:58:43.634465+00:00", "meta": {"OBJECT_NAME": "COSMOS 2251 DEB", "OBJECT_ID": "1993-036AE", "EPOCH": "2025-12-02T19:00:03.032064", "MEAN_MOTION": 13.88757031, "ECCENTRICITY": 0.024051, "INCLINATION": 74.0635, "RA_OF_ASC_NODE": 104.2887, "ARG_OF_PERICENTER": 222.102, "MEAN_ANOMALY": 252.0545, "EPHEMERIS_TYPE": 0, "CLASSIFICATION_TYPE": "U", "NORAD_CAT_ID": 33789, "ELEMENT_SET_NO": 999, "REV_AT_EPOCH": 84957, "BSTAR": 0.00097192, "MEAN_MOTION_DOT": 1.453e-05, "MEAN_MOTION_DDOT": 0}, "tle": {"line1": "1 33789U 93036AE  25336.79170176  .00001453  00000+0  97192-3 0  9991", "line2": "2 33789  74.0635 104.2887 0240510 222.1020 252.0545 13.88757031849577"}}, "geometry": {"type": "Point", "coordinates": [-179.5439169294192, 73.65769051898161]}}, {"type": "Feature", "properties": {"norad_id": 33791, "name": "COSMOS 2251 DEB", "group": "cosmos-2251-debris", "lat": -72.83235050967421, "lon": -11.658764318428345, "alt_km": 735.3610095884842, "timestamp": "2025-12-03T06:58:43.634476+00:00", "meta": {"OBJECT_NAME": "COSMOS 2251 DEB", "OBJECT_ID": "1993-036AG", "EPOCH": "2025-12-02T15:13:52.315392", "MEAN_MOTION": 14.43041455, "ECCENTRICITY": 0.0030581, "INCLINATION": 74.1759, "RA_OF_ASC_NODE": 56.1887, "ARG_OF_PERICENTER": 255.0035, "MEAN_ANOMALY": 214.3212, "EPHEMERIS_TYPE": 0, "CLASSIFICATION_TYPE": "U", "NORAD_CAT_ID": 33791, "ELEMENT_SET_NO": 999, "REV_AT_EPOCH": 87906, "BSTAR": 0.0008701105, "MEAN_MOTION_DOT": 2.908e-05, "MEAN_MOTION_DDOT": 0}, "tle": {"line1": "1 33791U 93036AG  25336.63463328  .00002908  00000+0  87011-3 0  9996", "line2": "2 33791  74.1759  56.1887 0030581 255.0035 214.3212 14.43041455879066"}}, "geometry": {"type": "Point", "coordinates": [-11.658764318428345, -72.83235050967421]}}, {"type": "Feature", "properties": {"norad_id": 33792, "name": "COSMOS 2251 DEB", "group": "cosmos-2251-debris", "lat": 26.661090245807813, "lon": 8.771109082899466, "alt_km": 833.1403167375129, "timestamp": "2025-12-03T06:58:43.634487+00:00", "meta": {"OBJECT_NAME": "COSMOS 2251 DEB", "OBJECT_ID": "1993-036AH", "EPOCH": "2025-12-02T11:44:52.132128", "MEAN_MOTION": 13.45800497, "ECCENTRICITY": 0.04268163, "INCLINATION": 73.9012, "RA_OF_ASC_NODE": 1.713, "ARG_OF_PERICENTER": 68.2829, "MEAN_ANOMALY": 41.9153, "EPHEMERIS_TYPE": 0, "CLASSIFICATION_TYPE": "U", "NORAD_CAT_ID": 33792, "ELEMENT_SET_NO": 999, "REV_AT_EPOCH": 82304, "BSTAR": 0.00076236309, "MEAN_MOTION_DOT": 7.7e-06, "MEAN_MOTION_DDOT": 0}, "tle": {"line1": "1 33792U 93036AH  25336.48949227  .00000770  00000+0  76236-3 0  9999", "line2": "2 33792  73.9012   1.7130 0426816  68.2829  41.9153 13.45800497823043"}}, "geometry": {"type": "Point", "coordinates": [8.771109082899466, 26.661090245807813]}}, {"type": "Feature", "properties": {"norad_id": 33793, "name": "COSMOS 2251 DEB", "group": "cosmos-2251-debris", "lat": -35.17826226053761, "lon": 155.40610364521697, "alt_km": 749.4554257677573, "timestamp": "2025-12-03T06:58:43.634497+00:00", "meta": {"OBJECT_NAME": "COSMOS 2251 DEB", "OBJECT_ID": "1993-036AJ", "EPOCH": "2025-12-02T19:27:53.892288", "MEAN_MOTION": 14.27669994, "ECCENTRICITY": 0.0078164, "INCLINATION": 73.9798, "RA_OF_ASC_NODE": 167.9616, "ARG_OF_PERICENTER": 320.0046, "MEAN_ANOMALY": 58.4867, "EPHEMERIS_TYPE": 0, "CLASSIFICATION_TYPE": "U", "NORAD_CAT_ID": 33793, "ELEMENT_SET_NO": 999, "REV_AT_EPOCH": 87065, "BSTAR": 0.00077443, "MEAN_MOTION_DOT": 1.946e-05, "MEAN_MOTION_DDOT": 0}, "tle": {"line1": "1 33793U 93036AJ  25336.81104042  .00001946  00000+0  77443-3 0  9992", "line2": "2 33793  73.9798 167.9616 0078164 320.0046  58.4867 14.27669994870658"}}, "geometry": {"type": "Point", "coordinates": [155.40610364521697, -35.17826226053761]}}, {"type": "Feature", "properties": {"norad_id": 33795, "name": "COSMOS 2251 DEB", "group": "cosmos-2251-debris", "lat": 24.268211549839613, "lon": -91.31492593406449, "alt_km": 530.4991708891112, "timestamp": "2025-12-03T06:58:43.634507+00:00", "meta": {"OBJECT_NAME": "COSMOS 2251 DEB", "OBJECT_ID": "1993-036AL", "EPOCH": "2025-12-02T18:02:36.866976", "MEAN_MOTION": 15.04857255, "ECCENTRICITY": 0.0033289, "INCLINATION": 74.0314, "RA_OF_ASC_NODE": 97.2062, "ARG_OF_PERICENTER": 183.5906, "MEAN_ANOMALY": 292.543, "EPHEMERIS_TYPE": 0, "CLASSIFICATION_TYPE": "U", "NORAD_CAT_ID": 33795, "ELEMENT_SET_NO": 999, "REV_AT_EPOCH": 89871, "BSTAR": 0.002146, "MEAN_MOTION_DOT": 0.00030812, "MEAN_MOTION_DDOT": 0}, "tle": {"line1": "1 33795U 93036AL  25336.75181559  .00030812  00000+0  21460-2 0  9996", "line2": "2 33795  74.0314  97.2062 0033289 183.5906 292.5430 15.04857255898711"}}, "geometry": {"type": "Point", "coordinates": [-91.31492593406449, 24.268211549839613]}}, {"type": "Feature", "properties": {"norad_id": 33797, "name": "COSMOS 2251 DEB", "group": "cosmos-2251-debris", "lat": 32.88598295462255, "lon": -137.74085174621723, "alt_km": 654.6547538786735, "timestamp": "2025-12-03T06:58:43.634518+00:00", "meta": {"OBJECT_NAME": "COSMOS 2251 DEB", "OBJECT_ID": "1993-036AN", "EPOCH": "2025-12-02T16:04:10.677792", "MEAN_MOTION": 14.57776209, "ECCENTRICITY": 0.00612776, "INCLINATION": 74.0485, "RA_OF_ASC_NODE": 54.0963, "ARG_OF_PERICENTER": 144.9416, "MEAN_ANOMALY": 341.7626, "EPHEMERIS_TYPE": 0, "CLASSIFICATION_TYPE": "U", "NORAD_CAT_ID": 33797, "ELEMENT_SET_NO": 999, "REV_AT_EPOCH": 88838, "BSTAR": 0.00069253868, "MEAN_MOTION_DOT": 3.22e-05, "MEAN_MOTION_DDOT": 0}, "tle": {"line1": "1 33797U 93036AN  25336.66956803  .00003220  00000+0  69254-3 0  9997", "line2": "2 33797  74.0485  54.0963 0061277 144.9416 341.7626 14.57776209888380"}}, "geometry": {"type": "Point", "coordinates": [-137.74085174621723, 32.88598295462255]}}, {"type": "Feature", "properties": {"norad_id": 33798, "name": "COSMOS 2251 DEB", "group": "cosmos-2251-debris", "lat": 61.783820075163504, "lon": -58.75681970542035, "alt_km": 800.0565791796234, "timestamp": "2025-12-03T06:58:43.634528+00:00", "meta": {"OBJECT_NAME": "COSMOS 2251 DEB", "OBJECT_ID": "1993-036AP", "EPOCH": "2025-12-02T20:56:30.384960", "MEAN_MOTION": 14.44594898, "ECCENTRICITY": 0.0092484, "INCLINATION": 74.0276, "RA_OF_ASC_NODE": 154.2839, "ARG_OF_PERICENTER": 277.7827, "MEAN_ANOMALY": 182.0147, "EPHEMERIS_TYPE": 0, "CLASSIFICATION_TYPE": "U", "NORAD_CAT_ID": 33798, "ELEMENT_SET_NO": 999, "REV_AT_EPOCH": 88451, "BSTAR": 0.00020463, "MEAN_MOTION_DOT": 7.16e-06, "MEAN_MOTION_DDOT": 0}, "tle": {"line1": "1 33798U 93036AP  25336.87257390  .00000716  00000+0  20463-3 0  9992", "line2": "2 33798  74.0276 154.2839 0092484 277.7827 182.0147 14.44594898884512"}}, "geometry": {"type": "Point", "coordinates": [-58.75681970542035, 61.783820075163504]}}]}